{"type": "FeatureCollection", "features": [ {"type": "Feature", "properties": {"norad_id": 45358, "name": "COSMOS 2545 (760)", "group": "gnss", "lat": -58.199334427806356, "lon": -91.11401133335163, "alt_km": 19113.227981303357, "timestamp": "2025-12-02T23:34:15.759449+00:00", "meta": {"OBJECT_NAME": "COSMOS 2545 (760)", "OBJECT_ID": "2020-018A", "EPOCH": "2025-11-30T06:11:57.120864", "MEAN_MOTION": 2.13102401, "ECCENTRICITY": 0.00119448, "INCLINATION": 64.4769, "RA_OF_ASC_NODE": 319.4079, "ARG_OF_PERICENTER": 248.2158, "MEAN_ANOMALY": 111.6706, "EPHEMERIS_TYPE": 0, "CLASSIFICATION_TYPE": "U", "NORAD_CAT_ID": 45358, "ELEMENT_SET_NO": 999, "REV_AT_EPOCH": 4442, "BSTAR": 0, "MEAN_MOTION_DOT": -2.2e-07, "MEAN_MOTION_DDOT": 0}, "tle": {"line1": "1 45358U 20018A   25334.25830001 -.00000022  00000+0  00000+0 0  9995", "line2": "2 45358  64.4769 319.4079 0011944 248.2158 111.6706  2.13102401 44425"}}, "geometry": {"type": "Point", "coordinates": [-91.11401133335163, -58.199334427806356]}}, {"type": "Feature", "properties": {"norad_id": 45807, "name": "BEIDOU-3 G3 (C61)", "group": "gnss", "lat": 1.83527242891047, "lon": 176.1634516919041, "alt_km": 35807.30408532125, "timestamp": "2025-12-02T23:34:15.759463+00:00", "meta": {"OBJECT_NAME": "BEIDOU-3 G3 (C61)", "OBJECT_ID": "2020-040A", "EPOCH": "2025-12-02T03:49:07.508352", "MEAN_MOTION": 1.00267316, "ECCENTRICITY": 0.00049793, "INCLINATION": 1.9634, "RA_OF_ASC_NODE": 66.509, "ARG_OF_PERICENTER": 305.9594, "MEAN_ANOMALY": 226.6097, "EPHEMERIS_TYPE": 0, "CLASSIFICATION_TYPE": "U", "NORAD_CAT_ID": 45807, "ELEMENT_SET_NO": 999, "REV_AT_EPOCH": 2009, "BSTAR": 0, "MEAN_MOTION_DOT": -3.33e-06, "MEAN_MOTION_DDOT": 0}, "tle": {"line1": "1 45807U 20040A   25336.15911468 -.00000333  00000+0  00000+0 0  9992", "line2": "2 45807   1.9634  66.5090 0004979 305.9594 226.6097  1.00267316 20098"}}, "geometry": {"type": "Point", "coordinates": [176.1634516919041, 1.83527242891047]}}, {"type": "Feature", "properties": {"norad_id": 45854, "name": "GPS BIII-3  (PRN 23)", "group": "gnss", "lat": 33.60225180755912, "lon": -169.45186491319922, "alt_km": 20108.775776664614, "timestamp": "2025-12-02T23:34:15.759477+00:00", "meta": {"OBJECT_NAME": "GPS BIII-3  (PRN 23)", "OBJECT_ID": "2020-041A", "EPOCH": "2025-12-02T12:43:29.980704", "MEAN_MOTION": 2.00561721, "ECCENTRICITY": 0.0060247, "INCLINATION": 56.5397, "RA_OF_ASC_NODE": 36.584, "ARG_OF_PERICENTER": 202.9657, "MEAN_ANOMALY": 329.812, "EPHEMERIS_TYPE": 0, "CLASSIFICATION_TYPE": "U", "NORAD_CAT_ID": 45854, "ELEMENT_SET_NO": 999, "REV_AT_EPOCH": 4009, "BSTAR": 0, "MEAN_MOTION_DOT": -6.6e-07, "MEAN_MOTION_DDOT": 0}, "tle": {"line1": "1 45854U 20041A   25336.53020811 -.00000066  00000+0  00000+0 0  9993", "line2": "2 45854  56.5397  36.5840 0060247 202.9657 329.8120  2.00561721 40091"}}, "geometry": {"type": "Point", "coordinates": [-169.45186491319922, 33.60225180755912]}}, {"type": "Feature", "properties": {"norad_id": 46114, "name": "GALAXY 30 (WAAS/PRN 135)", "group": "gnss", "lat": -0.0012147051580460263, "lon": -59.35382054092756, "alt_km": 35779.36095243729, "timestamp": "2025-12-02T23:34:15.759489+00:00", "meta": {"OBJECT_NAME": "GALAXY 30 (WAAS/PRN 135)", "OBJECT_ID": "2020-056C", "EPOCH": "2025-12-02T10:45:38.709216", "MEAN_MOTION": 1.00272614, "ECCENTRICITY": 0.0002388, "INCLINATION": 0.013, "RA_OF_ASC_NODE": 294.9342, "ARG_OF_PERICENTER": 315.3424, "MEAN_ANOMALY": 217.6932, "EPHEMERIS_TYPE": 0, "CLASSIFICATION_TYPE": "U", "NORAD_CAT_ID": 46114, "ELEMENT_SET_NO": 999, "REV_AT_EPOCH": 1932, "BSTAR": 0, "MEAN_MOTION_DOT": 5.7e-07, "MEAN_MOTION_DDOT": 0}, "tle": {"line1": "1 46114U 20056C   25336.44836469  .00000057  00000+0  00000+0 0  9992", "line2": "2 46114   0.0130 294.9342 0002388 315.3424 217.6932  1.00272614 19326"}}, "geometry": {"type": "Point", "coordinates": [-59.35382054092756, -0.0012147051580460263]}}, {"type": "Feature", "properties": {"norad_id": 46805, "name": "COSMOS 2547 (705K)", "group": "gnss", "lat": 30.928036016876465, "lon": 2.488461455700397, "alt_km": 19124.927543679347, "timestamp": "2025-12-02T23:34:15.759501+00:00", "meta": {"OBJECT_NAME": "COSMOS 2547 (705K)", "OBJECT_ID": "2020-075A", "EPOCH": "2025-11-30T21:58:22.930752", "MEAN_MOTION": 2.13099889, "ECCENTRICITY": 0.00063143, "INCLINATION": 64.5957, "RA_OF_ASC_NODE": 199.0914, "ARG_OF_PERICENTER": 229.6069, "MEAN_ANOMALY": 130.4292, "EPHEMERIS_TYPE": 0, "CLASSIFICATION_TYPE": "U", "NORAD_CAT_ID": 46805, "ELEMENT_SET_NO": 999, "REV_AT_EPOCH": 3968, "BSTAR": 0, "MEAN_MOTION_DOT": 9.8e-07, "MEAN_MOTION_DDOT": 0}, "tle": {"line1": "1 46805U 20075A   25334.91554318  .00000098  00000+0  00000+0 0  9995", "line2": "2 46805  64.5957 199.0914 0006314 229.6069 130.4292  2.13099889 39688"}}, "geometry": {"type": "Point", "coordinates": [2.488461455700397, 30.928036016876465]}}, {"type": "Feature", "properties": {"norad_id": 46826, "name": "GPS BIII-4  (PRN 14)", "group": "gnss", "lat": 49.925197139826984, "lon": -20.86856972317688, "alt_km": 20189.897258431247, "timestamp": "2025-12-02T23:34:15.759512+00:00", "meta": {"OBJECT_NAME": "GPS BIII-4  (PRN 14)", "OBJECT_ID": "2020-078A", "EPOCH": "2025-11-12T03:01:29.190720", "MEAN_MOTION": 2.00567032, "ECCENTRICITY": 0.0063911, "INCLINATION": 54.0223, "RA_OF_ASC_NODE": 219.5836, "ARG_OF_PERICENTER": 203.4985, "MEAN_ANOMALY": 326.7754, "EPHEMERIS_TYPE": 0, "CLASSIFICATION_TYPE": "U", "NORAD_CAT_ID": 46826, "ELEMENT_SET_NO": 999, "REV_AT_EPOCH": 3715, "BSTAR": 0, "MEAN_MOTION_DOT": -3.4e-07, "MEAN_MOTION_DDOT": 0}, "tle": {"line1": "1 46826U 20078A   25316.12603230 -.00000034  00000+0  00000+0 0  9993", "line2": "2 46826  54.0223 219.5836 0063911 203.4985 326.7754  2.00567032 37154"}}, "geometry": {"type": "Point", "coordinates": [-20.86856972317688, 49.925197139826984]}}, {"type": "Feature", "properties": {"norad_id": 48859, "name": "GPS BIII-5  (PRN 11)", "group": "gnss", "lat": -47.64910415306162, "lon": -69.2304583282785, "alt_km": 20158.328901427656, "timestamp": "2025-12-02T23:34:15.759529+00:00", "meta": {"OBJECT_NAME": "GPS BIII-5  (PRN 11)", "OBJECT_ID": "2021-054A", "EPOCH": "2025-11-30T17:12:22.003776", "MEAN_MOTION": 2.00553931, "ECCENTRICITY": 0.00246504, "INCLINATION": 55.2605, "RA_OF_ASC_NODE": 340.4377, "ARG_OF_PERICENTER": 232.9586, "MEAN_ANOMALY": 227.195, "EPHEMERIS_TYPE": 0, "CLASSIFICATION_TYPE": "U", "NORAD_CAT_ID": 48859, "ELEMENT_SET_NO": 999, "REV_AT_EPOCH": 3277, "BSTAR": 0, "MEAN_MOTION_DOT": -5.5e-07, "MEAN_MOTION_DDOT": 0}, "tle": {"line1": "1 48859U 21054A   25334.71692134 -.00000055  00000+0  00000+0 0  9995", "line2": "2 48859  55.2605 340.4377 0024650 232.9586 227.1950  2.00553931 32772"}}, "geometry": {"type": "Point", "coordinates": [-69.2304583282785, -47.64910415306162]}}, {"type": "Feature", "properties": {"norad_id": 49336, "name": "QZS-1R (QZSS/PRN 196)", "group": "gnss", "lat": 33.15601559028392, "lon": -157.3826872291875, "alt_km": 38641.90712382763, "timestamp": "2025-12-02T23:34:15.759541+00:00", "meta": {"OBJECT_NAME": "QZS-1R (QZSS/PRN 196)", "OBJECT_ID": "2021-096A", "EPOCH": "2025-12-01T04:08:48.475392", "MEAN_MOTION": 1.0026089, "ECCENTRICITY": 0.0753298, "INCLINATION": 37.0524, "RA_OF_ASC_NODE": 82.5332, "ARG_OF_PERICENTER": 271.0716, "MEAN_ANOMALY": 274.2635, "EPHEMERIS_TYPE": 0, "CLASSIFICATION_TYPE": "U", "NORAD_CAT_ID": 49336, "ELEMENT_SET_NO": 999, "REV_AT_EPOCH": 1502, "BSTAR": 0, "MEAN_MOTION_DOT": -2.17e-06, "MEAN_MOTION_DDOT": 0}, "tle": {"line1": "1 49336U 21096A   25335.17278328 -.00000217  00000+0  00000+0 0  9998", "line2": "2 49336  37.0524  82.5332 0753298 271.0716 274.2635  1.00260890 15022"}}, "geometry": {"type": "Point", "coordinates": [-157.3826872291875, 33.15601559028392]}}, {"type": "Feature", "properties": {"norad_id": 49809, "name": "GSAT0223 (GALILEO 27)", "group": "gnss", "lat": -43.785859559114414, "lon": -51.16342680450741, "alt_km": 23219.37599831612, "timestamp": "2025-12-02T23:34:15.759555+00:00", "meta": {"OBJECT_NAME": "GSAT0223 (GALILEO 27)", "OBJECT_ID": "2021-116A", "EPOCH": "2025-12-01T07:17:38.669856", "MEAN_MOTION": 1.70475545, "ECCENTRICITY": 0.00047526, "INCLINATION": 57.2221, "RA_OF_ASC_NODE": 347.0231, "ARG_OF_PERICENTER": 247.908, "MEAN_ANOMALY": 106.7158, "EPHEMERIS_TYPE": 0, "CLASSIFICATION_TYPE": "U", "NORAD_CAT_ID": 49809, "ELEMENT_SET_NO": 999, "REV_AT_EPOCH": 2480, "BSTAR": 0, "MEAN_MOTION_DOT": -5.9e-07, "MEAN_MOTION_DDOT": 0}, "tle": {"line1": "1 49809U 21116A   25335.30391979 -.00000059  00000+0  00000+0 0  9993", "line2": "2 49809  57.2221 347.0231 0004752 247.9080 106.7158  1.70475545 24809"}}, "geometry": {"type": "Point", "coordinates": [-51.16342680450741, -43.785859559114414]}}, {"type": "Feature", "properties": {"norad_id": 49810, "name": "GSAT0224 (GALILEO 28)", "group": "gnss", "lat": 44.930603812715795, "lon": 26.991166059715482, "alt_km": 23227.902352650428, "timestamp": "2025-12-02T23:34:15.759567+00:00", "meta": {"OBJECT_NAME": "GSAT0224 (GALILEO 28)", "OBJECT_ID": "2021-116B", "EPOCH": "2025-11-22T08:02:15.403200", "MEAN_MOTION": 1.70476295, "ECCENTRICITY": 0.00038769, "INCLINATION": 57.2249, "RA_OF_ASC_NODE": 347.264, "ARG_OF_PERICENTER": 247.2257, "MEAN_ANOMALY": 115.5015, "EPHEMERIS_TYPE": 0, "CLASSIFICATION_TYPE": "U", "NORAD_CAT_ID": 49810, "ELEMENT_SET_NO": 999, "REV_AT_EPOCH": 2468, "BSTAR": 0, "MEAN_MOTION_DOT": -6.8e-07, "MEAN_MOTION_DDOT": 0}, "tle": {"line1": "1 49810U 21116B   25326.33490050 -.00000068  00000+0  00000+0 0  9998", "line2": "2 49810  57.2249 347.2640 0003876 247.2257 115.5015  1.70476295 24681"}}, "geometry": {"type": "Point", "coordinates": [26.991166059715482, 44.930603812715795]}}]}